COSMOS 2058             
1 20465U 90010A   26093.20991092  .00008007  00000+0  47009-3 0  9996
2 20465  82.4724  23.2679 0007865 243.6689 116.3734 15.11567341945949
SL-14 R/B               
1 20466U 90010B   26093.16985587  .00000866  00000+0  10200-3 0  9992
2 20466  82.5004 244.3878 0018927 215.7871 144.2077 14.83594707932112
SL-14 R/B               
1 20511U 90018B   26093.27866184  .00000724  00000+0  87817-4 0  9996
2 20511  82.5241 200.1124 0016518  16.1604 344.0134 14.82171032926221
HST                     
1 20580U 90037B   26093.08220152  .00012851  00000+0  42314-3 0  9997
2 20580  28.4722 233.5527 0002097  46.0516 314.0252 15.29886463777054
SL-16 R/B               
1 20625U 90046B   26092.94446963  .00000083  00000+0  67375-4 0  9990
2 20625  70.9985 246.9695 0016512 268.1139  91.8092 14.15018949851826
COSMOS 2084             
1 20663U 90055A   26092.82933544  .00005008  00000+0  35672-3 0  9991
2 20663  62.7895 253.2346 0013198 198.1971 161.8659 15.05798691939951
SL-6 R/B(2)             
1 20666U 90055D   26093.31062132  .00003308  00000+0  25246-3 0  9992
2 20666  62.7830 170.1161 0028823 352.5381   7.5285 15.03720082941891
SL-8 R/B                
1 20775U 90078B   26093.09606480  .00018990  00000+0  56307-3 0  9998
2 20775  82.9040 229.3452 0357616 291.6347  64.7136 14.89789566812936
SL-8 R/B                
1 21088U 91006B   26093.24902740  .00000148  00000+0  13320-3 0  9997
2 21088  82.9436 151.7862 0021507 329.5962  96.0417 13.77498489767450
OKEAN-3                 
1 21397U 91039A   26093.08167579  .00005126  00000+0  35930-3 0  9993
2 21397  82.5149 313.2080 0012696 246.7901 113.1989 15.04954110868704
COSMOS 2151             
1 21422U 91042A   26093.29615876  .00003673  00000+0  29132-3 0  9999
2 21422  82.4957  59.9328 0011812 345.2787  14.8091 15.00218658866888
SL-14 R/B               
1 21423U 91042B   26093.26942238  .00000746  00000+0  91233-4 0  9992
2 21423  82.4959 197.1392 0017667 155.9522 204.2522 14.81856255856718
