CCSDS_OMM_VERS = 2.0
CREATION_DATE  = 
ORIGINATOR     = 

OBJECT_NAME    = COSMOS 2058
OBJECT_ID      = 1990-010A
CENTER_NAME    = EARTH
REF_FRAME      = TEME
TIME_SYSTEM    = UTC
MEAN_ELEMENT_THEORY = SGP/SGP4

EPOCH          = 2026-04-03T05:02:16.303488
MEAN_MOTION    = 15.11567341
ECCENTRICITY   = .00078652
INCLINATION    = 82.4724
RA_OF_ASC_NODE = 23.2679
ARG_OF_PERICENTER = 243.6689
MEAN_ANOMALY   = 116.3734

EPHEMERIS_TYPE = 0
CLASSIFICATION_TYPE = U
NORAD_CAT_ID   = 20465
ELEMENT_SET_NO = 999
REV_AT_EPOCH   = 94594
BSTAR          = .47008629E-3
MEAN_MOTION_DOT = .8007E-4
MEAN_MOTION_DDOT = 0

CCSDS_OMM_VERS = 2.0
CREATION_DATE  = 
ORIGINATOR     = 

OBJECT_NAME    = SL-14 R/B
OBJECT_ID      = 1990-010B
CENTER_NAME    = EARTH
REF_FRAME      = TEME
TIME_SYSTEM    = UTC
MEAN_ELEMENT_THEORY = SGP/SGP4

EPOCH          = 2026-04-03T04:04:35.547168
MEAN_MOTION    = 14.83594707
ECCENTRICITY   = .00189279
INCLINATION    = 82.5004
RA_OF_ASC_NODE = 244.3878
ARG_OF_PERICENTER = 215.7871
MEAN_ANOMALY   = 144.2077

EPHEMERIS_TYPE = 0
CLASSIFICATION_TYPE = U
NORAD_CAT_ID   = 20466
ELEMENT_SET_NO = 999
REV_AT_EPOCH   = 93211
BSTAR          = .10199721E-3
MEAN_MOTION_DOT = .866E-5
MEAN_MOTION_DDOT = 0

CCSDS_OMM_VERS = 2.0
CREATION_DATE  = 
ORIGINATOR     = 

OBJECT_NAME    = SL-14 R/B
OBJECT_ID      = 1990-018B
CENTER_NAME    = EARTH
REF_FRAME      = TEME
TIME_SYSTEM    = UTC
MEAN_ELEMENT_THEORY = SGP/SGP4

EPOCH          = 2026-04-03T06:41:16.382976
MEAN_MOTION    = 14.82171032
ECCENTRICITY   = .00165182
INCLINATION    = 82.5241
RA_OF_ASC_NODE = 200.1124
ARG_OF_PERICENTER = 16.1604
MEAN_ANOMALY   = 344.0134

EPHEMERIS_TYPE = 0
CLASSIFICATION_TYPE = U
NORAD_CAT_ID   = 20511
ELEMENT_SET_NO = 999
REV_AT_EPOCH   = 92622
BSTAR          = .87816775E-4
MEAN_MOTION_DOT = .724E-5
MEAN_MOTION_DDOT = 0

CCSDS_OMM_VERS = 2.0
CREATION_DATE  = 
ORIGINATOR     = 

OBJECT_NAME    = HST
OBJECT_ID      = 1990-037B
CENTER_NAME    = EARTH
REF_FRAME      = TEME
TIME_SYSTEM    = UTC
MEAN_ELEMENT_THEORY = SGP/SGP4

EPOCH          = 2026-04-03T01:58:22.211328
MEAN_MOTION    = 15.29886463
ECCENTRICITY   = .00020972
INCLINATION    = 28.4722
RA_OF_ASC_NODE = 233.5527
ARG_OF_PERICENTER = 46.0516
MEAN_ANOMALY   = 314.0252

EPHEMERIS_TYPE = 0
CLASSIFICATION_TYPE = U
NORAD_CAT_ID   = 20580
ELEMENT_SET_NO = 999
REV_AT_EPOCH   = 77705
BSTAR          = .42313735E-3
MEAN_MOTION_DOT = .12851E-3
MEAN_MOTION_DDOT = 0

CCSDS_OMM_VERS = 2.0
CREATION_DATE  = 
ORIGINATOR     = 

OBJECT_NAME    = SL-16 R/B
OBJECT_ID      = 1990-046B
CENTER_NAME    = EARTH
REF_FRAME      = TEME
TIME_SYSTEM    = UTC
MEAN_ELEMENT_THEORY = SGP/SGP4

EPOCH          = 2026-04-02T22:40:02.176032
MEAN_MOTION    = 14.15018949
ECCENTRICITY   = .00165129
INCLINATION    = 70.9985
RA_OF_ASC_NODE = 246.9695
ARG_OF_PERICENTER = 268.1139
MEAN_ANOMALY   = 91.8092

EPHEMERIS_TYPE = 0
CLASSIFICATION_TYPE = U
NORAD_CAT_ID   = 20625
ELEMENT_SET_NO = 999
REV_AT_EPOCH   = 85182
BSTAR          = .67374982E-4
MEAN_MOTION_DOT = .83E-6
MEAN_MOTION_DDOT = 0

CCSDS_OMM_VERS = 2.0
CREATION_DATE  = 
ORIGINATOR     = 

OBJECT_NAME    = COSMOS 2084
OBJECT_ID      = 1990-055A
CENTER_NAME    = EARTH
REF_FRAME      = TEME
TIME_SYSTEM    = UTC
MEAN_ELEMENT_THEORY = SGP/SGP4

EPOCH          = 2026-04-02T19:54:14.582016
MEAN_MOTION    = 15.05798691
ECCENTRICITY   = .00131988
INCLINATION    = 62.7895
RA_OF_ASC_NODE = 253.2346
ARG_OF_PERICENTER = 198.1971
MEAN_ANOMALY   = 161.8659

EPHEMERIS_TYPE = 0
CLASSIFICATION_TYPE = U
NORAD_CAT_ID   = 20663
ELEMENT_SET_NO = 999
REV_AT_EPOCH   = 93995
BSTAR          = .35672393E-3
MEAN_MOTION_DOT = .5008E-4
MEAN_MOTION_DDOT = 0

CCSDS_OMM_VERS = 2.0
CREATION_DATE  = 
ORIGINATOR     = 

OBJECT_NAME    = SL-6 R/B(2)
OBJECT_ID      = 1990-055D
CENTER_NAME    = EARTH
REF_FRAME      = TEME
TIME_SYSTEM    = UTC
MEAN_ELEMENT_THEORY = SGP/SGP4

EPOCH          = 2026-04-03T07:27:17.682048
MEAN_MOTION    = 15.03720082
ECCENTRICITY   = .00288235
INCLINATION    = 62.7830
RA_OF_ASC_NODE = 170.1161
ARG_OF_PERICENTER = 352.5381
MEAN_ANOMALY   = 7.5285

EPHEMERIS_TYPE = 0
CLASSIFICATION_TYPE = U
NORAD_CAT_ID   = 20666
ELEMENT_SET_NO = 999
REV_AT_EPOCH   = 94189
BSTAR          = .25246009E-3
MEAN_MOTION_DOT = .3308E-4
MEAN_MOTION_DDOT = 0

CCSDS_OMM_VERS = 2.0
CREATION_DATE  = 
ORIGINATOR     = 

OBJECT_NAME    = SL-8 R/B
OBJECT_ID      = 1990-078B
CENTER_NAME    = EARTH
REF_FRAME      = TEME
TIME_SYSTEM    = UTC
MEAN_ELEMENT_THEORY = SGP/SGP4

EPOCH          = 2026-04-03T02:18:19.998720
MEAN_MOTION    = 14.89789566
ECCENTRICITY   = .03576165
INCLINATION    = 82.9040
RA_OF_ASC_NODE = 229.3452
ARG_OF_PERICENTER = 291.6347
MEAN_ANOMALY   = 64.7136

EPHEMERIS_TYPE = 0
CLASSIFICATION_TYPE = U
NORAD_CAT_ID   = 20775
ELEMENT_SET_NO = 999
REV_AT_EPOCH   = 81293
BSTAR          = .56306878E-3
MEAN_MOTION_DOT = .1899E-3
MEAN_MOTION_DDOT = 0

CCSDS_OMM_VERS = 2.0
CREATION_DATE  = 
ORIGINATOR     = 

OBJECT_NAME    = SL-8 R/B
OBJECT_ID      = 1991-006B
CENTER_NAME    = EARTH
REF_FRAME      = TEME
TIME_SYSTEM    = UTC
MEAN_ELEMENT_THEORY = SGP/SGP4

EPOCH          = 2026-04-03T05:58:35.967360
MEAN_MOTION    = 13.77498489
ECCENTRICITY   = .0021507
INCLINATION    = 82.9436
RA_OF_ASC_NODE = 151.7862
ARG_OF_PERICENTER = 329.5962
MEAN_ANOMALY   = 96.0417

EPHEMERIS_TYPE = 0
CLASSIFICATION_TYPE = U
NORAD_CAT_ID   = 21088
ELEMENT_SET_NO = 999
REV_AT_EPOCH   = 76745
BSTAR          = .13319799E-3
MEAN_MOTION_DOT = .148E-5
MEAN_MOTION_DDOT = 0

CCSDS_OMM_VERS = 2.0
CREATION_DATE  = 
ORIGINATOR     = 

OBJECT_NAME    = OKEAN-3
OBJECT_ID      = 1991-039A
CENTER_NAME    = EARTH
REF_FRAME      = TEME
TIME_SYSTEM    = UTC
MEAN_ELEMENT_THEORY = SGP/SGP4

EPOCH          = 2026-04-03T01:57:36.788256
MEAN_MOTION    = 15.04954110
ECCENTRICITY   = .00126969
INCLINATION    = 82.5149
RA_OF_ASC_NODE = 313.2080
ARG_OF_PERICENTER = 246.7901
MEAN_ANOMALY   = 113.1989

EPHEMERIS_TYPE = 0
CLASSIFICATION_TYPE = U
NORAD_CAT_ID   = 21397
ELEMENT_SET_NO = 999
REV_AT_EPOCH   = 86870
BSTAR          = .35930466E-3
MEAN_MOTION_DOT = .5126E-4
MEAN_MOTION_DDOT = 0

CCSDS_OMM_VERS = 2.0
CREATION_DATE  = 
ORIGINATOR     = 

OBJECT_NAME    = COSMOS 2151
OBJECT_ID      = 1991-042A
CENTER_NAME    = EARTH
REF_FRAME      = TEME
TIME_SYSTEM    = UTC
MEAN_ELEMENT_THEORY = SGP/SGP4

EPOCH          = 2026-04-03T07:06:28.116864
MEAN_MOTION    = 15.00218658
ECCENTRICITY   = .00118121
INCLINATION    = 82.4957
RA_OF_ASC_NODE = 59.9328
ARG_OF_PERICENTER = 345.2787
MEAN_ANOMALY   = 14.8091

EPHEMERIS_TYPE = 0
CLASSIFICATION_TYPE = U
NORAD_CAT_ID   = 21422
ELEMENT_SET_NO = 999
REV_AT_EPOCH   = 86688
BSTAR          = .29131939E-3
MEAN_MOTION_DOT = .3673E-4
MEAN_MOTION_DDOT = 0

CCSDS_OMM_VERS = 2.0
CREATION_DATE  = 
ORIGINATOR     = 

OBJECT_NAME    = SL-14 R/B
OBJECT_ID      = 1991-042B
CENTER_NAME    = EARTH
REF_FRAME      = TEME
TIME_SYSTEM    = UTC
MEAN_ELEMENT_THEORY = SGP/SGP4

EPOCH          = 2026-04-03T06:27:58.093632
MEAN_MOTION    = 14.81856255
ECCENTRICITY   = .00176677
INCLINATION    = 82.4959
RA_OF_ASC_NODE = 197.1392
ARG_OF_PERICENTER = 155.9522
MEAN_ANOMALY   = 204.2522

EPHEMERIS_TYPE = 0
CLASSIFICATION_TYPE = U
NORAD_CAT_ID   = 21423
ELEMENT_SET_NO = 999
REV_AT_EPOCH   = 85671
BSTAR          = .91232901E-4
MEAN_MOTION_DOT = .746E-5
MEAN_MOTION_DDOT = 0

